[
  {
    "OBJECT_NAME": "STARLINK-3540",
    "OBJECT_ID": "22016F",
    "EPOCH": "2025-11-11T05:39:54.186912",
    "MEAN_MOTION": 15.08881931,
    "ECCENTRICITY": 0.0001427,
    "INCLINATION": 53.2138,
    "RA_OF_ASC_NODE": 140.9546,
    "ARG_OF_PERICENTER": 75.9035,
    "MEAN_ANOMALY": 284.2116,
    "EPHEMERIS_TYPE": 0,
    "CLASSIFICATION_TYPE": "U",
    "NORAD_CAT_ID": 51719,
    "ELEMENT_SET_NO": 999,
    "REV_AT_EPOCH": 20554,
    "BSTAR": 0.0,
    "MEAN_MOTION_DOT": -0.00011374,
    "MEAN_MOTION_DDOT": 0.0,
    "TLE_LINE1": "1 51719U 22016F   25315.23604383 -.00011374  00000+0 -69683-3 0  9991",
    "TLE_LINE2": "2 51719  53.2138 140.9546 0001427  75.9035 284.2116 15.08881931205543",
    "COMMENT": "Grouped by shell and plane from TLE"
  },
  {
    "OBJECT_NAME": "STARLINK-3526",
    "OBJECT_ID": "22016G",
    "EPOCH": "2025-11-11T05:09:29.009376",
    "MEAN_MOTION": 15.08842364,
    "ECCENTRICITY": 0.0001736,
    "INCLINATION": 53.2156,
    "RA_OF_ASC_NODE": 140.9475,
    "ARG_OF_PERICENTER": 81.3647,
    "MEAN_ANOMALY": 278.7542,
    "EPHEMERIS_TYPE": 0,
    "CLASSIFICATION_TYPE": "U",
    "NORAD_CAT_ID": 51720,
    "ELEMENT_SET_NO": 999,
    "REV_AT_EPOCH": 20553,
    "BSTAR": 5.632200000000001e-05,
    "MEAN_MOTION_DOT": 6.08e-06,
    "MEAN_MOTION_DDOT": 0.0,
    "TLE_LINE1": "1 51720U 22016G   25315.21491909  .00000608  00000+0  56322-4 0  9992",
    "TLE_LINE2": "2 51720  53.2156 140.9475 0001736  81.3647 278.7542 15.08842364205536",
    "COMMENT": "Grouped by shell and plane from TLE"
  },
  {
    "OBJECT_NAME": "STARLINK-3524",
    "OBJECT_ID": "22016H",
    "EPOCH": "2025-11-10T23:03:50.584896",
    "MEAN_MOTION": 15.08836788,
    "ECCENTRICITY": 0.0001434,
    "INCLINATION": 53.2156,
    "RA_OF_ASC_NODE": 142.1235,
    "ARG_OF_PERICENTER": 88.7973,
    "MEAN_ANOMALY": 271.3183,
    "EPHEMERIS_TYPE": 0,
    "CLASSIFICATION_TYPE": "U",
    "NORAD_CAT_ID": 51721,
    "ELEMENT_SET_NO": 999,
    "REV_AT_EPOCH": 20550,
    "BSTAR": 5.5794e-05,
    "MEAN_MOTION_DOT": 6e-06,
    "MEAN_MOTION_DDOT": 0.0,
    "TLE_LINE1": "1 51721U 22016H   25314.96100214  .00000600  00000+0  55794-4 0  9994",
    "TLE_LINE2": "2 51721  53.2156 142.1235 0001434  88.7973 271.3183 15.08836788205503",
    "COMMENT": "Grouped by shell and plane from TLE"
  },
  {
    "OBJECT_NAME": "STARLINK-3535",
    "OBJECT_ID": "22016J",
    "EPOCH": "2025-11-10T13:08:56.815584",
    "MEAN_MOTION": 15.08838784,
    "ECCENTRICITY": 0.0001437,
    "INCLINATION": 53.2147,
    "RA_OF_ASC_NODE": 143.97,
    "ARG_OF_PERICENTER": 89.3283,
    "MEAN_ANOMALY": 270.7874,
    "EPHEMERIS_TYPE": 0,
    "CLASSIFICATION_TYPE": "U",
    "NORAD_CAT_ID": 51722,
    "ELEMENT_SET_NO": 999,
    "REV_AT_EPOCH": 20543,
    "BSTAR": 0.00012033000000000001,
    "MEAN_MOTION_DOT": 1.628e-05,
    "MEAN_MOTION_DDOT": 0.0,
    "TLE_LINE1": "1 51722U 22016J   25314.54787981  .00001628  00000+0  12033-3 0  9990",
    "TLE_LINE2": "2 51722  53.2147 143.9700 0001437  89.3283 270.7874 15.08838784205434",
    "COMMENT": "Grouped by shell and plane from TLE"
  },
  {
    "OBJECT_NAME": "STARLINK-3529",
    "OBJECT_ID": "22016L",
    "EPOCH": "2025-11-10T19:19:53.027040",
    "MEAN_MOTION": 15.08840679,
    "ECCENTRICITY": 0.0001398,
    "INCLINATION": 53.2148,
    "RA_OF_ASC_NODE": 142.8131,
    "ARG_OF_PERICENTER": 88.2289,
    "MEAN_ANOMALY": 271.8863,
    "EPHEMERIS_TYPE": 0,
    "CLASSIFICATION_TYPE": "U",
    "NORAD_CAT_ID": 51724,
    "ELEMENT_SET_NO": 999,
    "REV_AT_EPOCH": 20547,
    "BSTAR": 0.00011938,
    "MEAN_MOTION_DOT": 1.613e-05,
    "MEAN_MOTION_DDOT": 0.0,
    "TLE_LINE1": "1 51724U 22016L   25314.80547485  .00001613  00000+0  11938-3 0  9991",
    "TLE_LINE2": "2 51724  53.2148 142.8131 0001398  88.2289 271.8863 15.08840679205473",
    "COMMENT": "Grouped by shell and plane from TLE"
  },
  {
    "OBJECT_NAME": "STARLINK-3522",
    "OBJECT_ID": "22016M",
    "EPOCH": "2025-11-11T05:08:06.093888",
    "MEAN_MOTION": 15.08841009,
    "ECCENTRICITY": 9.93e-05,
    "INCLINATION": 53.2151,
    "RA_OF_ASC_NODE": 140.9802,
    "ARG_OF_PERICENTER": 79.0701,
    "MEAN_ANOMALY": 281.0403,
    "EPHEMERIS_TYPE": 0,
    "CLASSIFICATION_TYPE": "U",
    "NORAD_CAT_ID": 51725,
    "ELEMENT_SET_NO": 999,
    "REV_AT_EPOCH": 20553,
    "BSTAR": 0.00014273,
    "MEAN_MOTION_DOT": 1.985e-05,
    "MEAN_MOTION_DDOT": 0.0,
    "TLE_LINE1": "1 51725U 22016M   25315.21395942  .00001985  00000+0  14273-3 0  9994",
    "TLE_LINE2": "2 51725  53.2151 140.9802 0000993  79.0701 281.0403 15.08841009205537",
    "COMMENT": "Grouped by shell and plane from TLE"
  },
  {
    "OBJECT_NAME": "STARLINK-3532",
    "OBJECT_ID": "22016P",
    "EPOCH": "2025-11-10T13:03:40.209696",
    "MEAN_MOTION": 15.08842593,
    "ECCENTRICITY": 0.0001266,
    "INCLINATION": 53.2151,
    "RA_OF_ASC_NODE": 143.9861,
    "ARG_OF_PERICENTER": 67.8433,
    "MEAN_ANOMALY": 292.2693,
    "EPHEMERIS_TYPE": 0,
    "CLASSIFICATION_TYPE": "U",
    "NORAD_CAT_ID": 51727,
    "ELEMENT_SET_NO": 999,
    "REV_AT_EPOCH": 20543,
    "BSTAR": 0.0003298,
    "MEAN_MOTION_DOT": 4.965e-05,
    "MEAN_MOTION_DDOT": 0.0,
    "TLE_LINE1": "1 51727U 22016P   25314.54421539  .00004965  00000+0  32980-3 0  9999",
    "TLE_LINE2": "2 51727  53.2151 143.9861 0001266  67.8433 292.2693 15.08842593205431",
    "COMMENT": "Grouped by shell and plane from TLE"
  },
  {
    "OBJECT_NAME": "STARLINK-3615",
    "OBJECT_ID": "22017L",
    "EPOCH": "2025-11-11T05:29:18.568032",
    "MEAN_MOTION": 15.08825799,
    "ECCENTRICITY": 0.0001432,
    "INCLINATION": 53.2159,
    "RA_OF_ASC_NODE": 140.7874,
    "ARG_OF_PERICENTER": 90.2923,
    "MEAN_ANOMALY": 269.8234,
    "EPHEMERIS_TYPE": 0,
    "CLASSIFICATION_TYPE": "U",
    "NORAD_CAT_ID": 51778,
    "ELEMENT_SET_NO": 999,
    "REV_AT_EPOCH": 20467,
    "BSTAR": 0.0,
    "MEAN_MOTION_DOT": -1.025e-05,
    "MEAN_MOTION_DDOT": 0.0,
    "TLE_LINE1": "1 51778U 22017L   25315.22868713 -.00001025  00000+0 -46318-4 0  9998",
    "TLE_LINE2": "2 51778  53.2159 140.7874 0001432  90.2923 269.8234 15.08825799204678",
    "COMMENT": "Grouped by shell and plane from TLE"
  },
  {
    "OBJECT_NAME": "STARLINK-3601",
    "OBJECT_ID": "22017AN",
    "EPOCH": "2025-11-10T22:04:10.512768",
    "MEAN_MOTION": 15.08843673,
    "ECCENTRICITY": 0.0001418,
    "INCLINATION": 53.2153,
    "RA_OF_ASC_NODE": 142.3013,
    "ARG_OF_PERICENTER": 89.5735,
    "MEAN_ANOMALY": 270.542,
    "EPHEMERIS_TYPE": 0,
    "CLASSIFICATION_TYPE": "U",
    "NORAD_CAT_ID": 51804,
    "ELEMENT_SET_NO": 999,
    "REV_AT_EPOCH": 20622,
    "BSTAR": 0.0,
    "MEAN_MOTION_DOT": -1.51e-05,
    "MEAN_MOTION_DDOT": 0.0,
    "TLE_LINE1": "1 51804U 22017AN  25314.91956612 -.00001510  00000+0 -76794-4 0  9999",
    "TLE_LINE2": "2 51804  53.2153 142.3013 0001418  89.5735 270.5420 15.08843673206221",
    "COMMENT": "Grouped by shell and plane from TLE"
  },
  {
    "OBJECT_NAME": "STARLINK-3605",
    "OBJECT_ID": "22017AP",
    "EPOCH": "2025-11-10T18:58:42.424320",
    "MEAN_MOTION": 15.08842589,
    "ECCENTRICITY": 0.0001205,
    "INCLINATION": 53.2165,
    "RA_OF_ASC_NODE": 142.9559,
    "ARG_OF_PERICENTER": 86.5714,
    "MEAN_ANOMALY": 273.5416,
    "EPHEMERIS_TYPE": 0,
    "CLASSIFICATION_TYPE": "U",
    "NORAD_CAT_ID": 51805,
    "ELEMENT_SET_NO": 999,
    "REV_AT_EPOCH": 20629,
    "BSTAR": 6.6743e-05,
    "MEAN_MOTION_DOT": 7.75e-06,
    "MEAN_MOTION_DDOT": 0.0,
    "TLE_LINE1": "1 51805U 22017AP  25314.79076880  .00000775  00000+0  66743-4 0  9999",
    "TLE_LINE2": "2 51805  53.2165 142.9559 0001205  86.5714 273.5416 15.08842589206294",
    "COMMENT": "Grouped by shell and plane from TLE"
  },
  {
    "OBJECT_NAME": "STARLINK-3613",
    "OBJECT_ID": "22017AU",
    "EPOCH": "2025-11-10T23:13:05.653056",
    "MEAN_MOTION": 15.08839801,
    "ECCENTRICITY": 0.0001336,
    "INCLINATION": 53.2148,
    "RA_OF_ASC_NODE": 142.3049,
    "ARG_OF_PERICENTER": 92.8798,
    "MEAN_ANOMALY": 267.2347,
    "EPHEMERIS_TYPE": 0,
    "CLASSIFICATION_TYPE": "U",
    "NORAD_CAT_ID": 51810,
    "ELEMENT_SET_NO": 999,
    "REV_AT_EPOCH": 20615,
    "BSTAR": 4.0024e-05,
    "MEAN_MOTION_DOT": 3.49e-06,
    "MEAN_MOTION_DDOT": 0.0,
    "TLE_LINE1": "1 51810U 22017AU  25314.96742654  .00000349  00000+0  40024-4 0  9994",
    "TLE_LINE2": "2 51810  53.2148 142.3049 0001336  92.8798 267.2347 15.08839801206157",
    "COMMENT": "Grouped by shell and plane from TLE"
  },
  {
    "OBJECT_NAME": "STARLINK-3610",
    "OBJECT_ID": "22017AW",
    "EPOCH": "2025-11-10T22:25:21.393696",
    "MEAN_MOTION": 15.08843475,
    "ECCENTRICITY": 0.0001511,
    "INCLINATION": 53.2147,
    "RA_OF_ASC_NODE": 142.2344,
    "ARG_OF_PERICENTER": 87.8259,
    "MEAN_ANOMALY": 272.2906,
    "EPHEMERIS_TYPE": 0,
    "CLASSIFICATION_TYPE": "U",
    "NORAD_CAT_ID": 51812,
    "ELEMENT_SET_NO": 999,
    "REV_AT_EPOCH": 20615,
    "BSTAR": 5.8497e-05,
    "MEAN_MOTION_DOT": 6.43e-06,
    "MEAN_MOTION_DDOT": 0.0,
    "TLE_LINE1": "1 51812U 22017AW  25314.93427539  .00000643  00000+0  58497-4 0  9995",
    "TLE_LINE2": "2 51812  53.2147 142.2344 0001511  87.8259 272.2906 15.08843475206155",
    "COMMENT": "Grouped by shell and plane from TLE"
  },
  {
    "OBJECT_NAME": "STARLINK-3552",
    "OBJECT_ID": "22017AX",
    "EPOCH": "2025-11-11T05:55:48.606240",
    "MEAN_MOTION": 15.08833478,
    "ECCENTRICITY": 0.0001448,
    "INCLINATION": 53.2163,
    "RA_OF_ASC_NODE": 140.8589,
    "ARG_OF_PERICENTER": 91.0904,
    "MEAN_ANOMALY": 269.0254,
    "EPHEMERIS_TYPE": 0,
    "CLASSIFICATION_TYPE": "U",
    "NORAD_CAT_ID": 51813,
    "ELEMENT_SET_NO": 999,
    "REV_AT_EPOCH": 20620,
    "BSTAR": 0.00024499,
    "MEAN_MOTION_DOT": 3.613e-05,
    "MEAN_MOTION_DDOT": 0.0,
    "TLE_LINE1": "1 51813U 22017AX  25315.24709035  .00003613  00000+0  24499-3 0  9999",
    "TLE_LINE2": "2 51813  53.2163 140.8589 0001448  91.0904 269.0254 15.08833478206200",
    "COMMENT": "Grouped by shell and plane from TLE"
  }
]